TIANMU-1 08             
1 57400U 23101B   26066.00237819  .00000346  00000+0  14775-4 0  9993
2 57400  97.2717 118.7901 0006380 134.2174 225.9592 15.29204229146020
STARLINK-35774          
1 66283U 25247U   26068.63578590  .00024267  00000+0  82924-3 0  9998
2 66283  53.1571 191.8153 0001097  84.7187 275.3939 15.30182502 21029
